{
  "norad_id": 51883,
  "name": "STARLINK-3576",
  "history": [
    {
      "epoch": "2026-03-28T19:05:33.738432",
      "apogee_km": 540.6934511352383,
      "perigee_km": 538.7910343434851,
      "latitude_deg": -52.86361636100811,
      "longitude_deg": 164.67082047997974,
      "semi_major_axis_km": 6917.879242739362,
      "eccentricity": 0.0001375,
      "inclination_deg": 53.2176,
      "raan_deg": 273.5335,
      "arg_perigee_deg": 93.0361,
      "mean_anomaly_deg": 267.0788,
      "mean_motion_rev_day": 15.08840375
    }
  ]
}